{
  "links" : {
    "next" : "https://api.nasa.gov/neo/rest/v1/feed?start_date=2006-12-23&end_date=2006-12-23&detailed=true&api_key=t0TVs3DtDT2H8Oy2Zy8m2eVrNsAVKAexjcZXUckd",
    "prev" : "https://api.nasa.gov/neo/rest/v1/feed?start_date=2006-12-21&end_date=2006-12-21&detailed=true&api_key=t0TVs3DtDT2H8Oy2Zy8m2eVrNsAVKAexjcZXUckd",
    "self" : "https://api.nasa.gov/neo/rest/v1/feed?start_date=2006-12-22&end_date=2006-12-22&detailed=true&api_key=t0TVs3DtDT2H8Oy2Zy8m2eVrNsAVKAexjcZXUckd"
  },
  "element_count" : 5,
  "near_earth_objects" : {
    "2006-12-22" : [ {
      "links" : {
        "self" : "https://api.nasa.gov/neo/rest/v1/neo/2438430?api_key=t0TVs3DtDT2H8Oy2Zy8m2eVrNsAVKAexjcZXUckd"
      },
      "neo_reference_id" : "2438430",
      "name" : "438430 (2006 WL3)",
      "nasa_jpl_url" : "http://ssd.jpl.nasa.gov/sbdb.cgi?sstr=2438430",
      "absolute_magnitude_h" : 20.0,
      "estimated_diameter" : {
        "kilometers" : {
          "estimated_diameter_min" : 0.2658,
          "estimated_diameter_max" : 0.5943468684
        },
        "meters" : {
          "estimated_diameter_min" : 265.8,
          "estimated_diameter_max" : 594.3468684194
        },
        "miles" : {
          "estimated_diameter_min" : 0.1651604118,
          "estimated_diameter_max" : 0.369309908
        },
        "feet" : {
          "estimated_diameter_min" : 872.047272,
          "estimated_diameter_max" : 1949.9569797852
        }
      },
      "is_potentially_hazardous_asteroid" : false,
      "close_approach_data" : [ {
        "close_approach_date" : "2006-12-22",
        "epoch_date_close_approach" : 1166774400000,
        "relative_velocity" : {
          "kilometers_per_second" : "16.7970168708",
          "kilometers_per_hour" : "60469.2607350406",
          "miles_per_hour" : "37573.2470383923"
        },
        "miss_distance" : {
          "astronomical" : "0.354101357",
          "lunar" : "137.7454223633",
          "kilometers" : "52972808",
          "miles" : "32915778"
        },
        "orbiting_body" : "Earth"
      } ],
      "orbital_data" : {
        "orbit_id" : "24",
        "orbit_determination_date" : "2017-04-06 09:20:35",
        "orbit_uncertainty" : "1",
        "minimum_orbit_intersection" : ".16107",
        "jupiter_tisserand_invariant" : "4.762",
        "epoch_osculation" : "2458000.5",
        "eccentricity" : ".2407245516315364",
        "semi_major_axis" : "1.357780648595024",
        "inclination" : "20.39188593739852",
        "ascending_node_longitude" : "81.33559369353502",
        "orbital_period" : "577.8868990683345",
        "perihelion_distance" : "1.03092951074801",
        "perihelion_argument" : "67.10878397512593",
        "aphelion_distance" : "1.684631786442038",
        "perihelion_time" : "2458176.307063581375",
        "mean_anomaly" : "250.4793602496758",
        "mean_motion" : ".6229592686395723",
        "equinox" : "J2000"
      }
    }, {
      "links" : {
        "self" : "https://api.nasa.gov/neo/rest/v1/neo/3354958?api_key=t0TVs3DtDT2H8Oy2Zy8m2eVrNsAVKAexjcZXUckd"
      },
      "neo_reference_id" : "3354958",
      "name" : "(2006 UN216)",
      "nasa_jpl_url" : "http://ssd.jpl.nasa.gov/sbdb.cgi?sstr=3354958",
      "absolute_magnitude_h" : 18.9,
      "estimated_diameter" : {
        "kilometers" : {
          "estimated_diameter_min" : 0.4411182,
          "estimated_diameter_max" : 0.9863702813
        },
        "meters" : {
          "estimated_diameter_min" : 441.1181999969,
          "estimated_diameter_max" : 986.3702813054
        },
        "miles" : {
          "estimated_diameter_min" : 0.2740980571,
          "estimated_diameter_max" : 0.6129018881
        },
        "feet" : {
          "estimated_diameter_min" : 1447.2382352778,
          "estimated_diameter_max" : 3236.1230737181
        }
      },
      "is_potentially_hazardous_asteroid" : false,
      "close_approach_data" : [ {
        "close_approach_date" : "2006-12-22",
        "epoch_date_close_approach" : 1166774400000,
        "relative_velocity" : {
          "kilometers_per_second" : "7.7628440405",
          "kilometers_per_hour" : "27946.2385458138",
          "miles_per_hour" : "17364.705834203"
        },
        "miss_distance" : {
          "astronomical" : "0.2368804878",
          "lunar" : "92.1465072632",
          "kilometers" : "35436816",
          "miles" : "22019416"
        },
        "orbiting_body" : "Earth"
      } ],
      "orbital_data" : {
        "orbit_id" : "83",
        "orbit_determination_date" : "2017-04-06 09:07:45",
        "orbit_uncertainty" : "1",
        "minimum_orbit_intersection" : ".246578",
        "jupiter_tisserand_invariant" : "2.829",
        "epoch_osculation" : "2458000.5",
        "eccentricity" : ".6179587264861518",
        "semi_major_axis" : "3.211063873282731",
        "inclination" : "11.84099369114342",
        "ascending_node_longitude" : "84.0829502243914",
        "orbital_period" : "2101.705416938233",
        "perihelion_distance" : "1.226758931483245",
        "perihelion_argument" : "10.28610121590942",
        "aphelion_distance" : "5.195368815082218",
        "perihelion_time" : "2458291.257375556311",
        "mean_anomaly" : "310.1963242057209",
        "mean_motion" : ".1712894666867484",
        "equinox" : "J2000"
      }
    } ]
  }
}